{"id":"599","name":"Jupiter ","centerId":"10","centerName":"Sun ","epoch":"2000-Jan-01 12:00:00.0000","ephemerisType":"ELEMENTS","table":{"eccentricity":0.04878759429164036,"periapsis":740573662608.8763,"inclination":1.30463058652005,"longitudeOfAscendingNode":100.4911499502671,"argumentOfPeriapsis":275.0690666066695,"timeOfPeriapsis":2451318.4544933103,"meanMotion":9.612791048969867e-7,"meanAnomaly":18.81562710723796,"trueAnomaly":20.72855615535333,"semiMajorAxis":778557615696.1257,"apoapsis":816541568783.3751,"siderealOrbitPeriod":374501014.4983632}}
